{
  "type": "FeatureCollection",
  "features": [
    {
      "type": "Feature",
      "properties": {
        "norad_id": 40010,
        "name": "KAZEOSAT 2",
        "group": "resource",
        "lat": 41.18788836668794,
        "lon": 26.131718059719162,
        "alt_km": 605.1351749726755,
        "timestamp": "2025-12-21T14:40:47.567791+00:00",
        "meta_object_name": "KAZEOSAT 2",
        "meta_object_id": "2014-033A",
        "meta_epoch": "2025-12-21T05:58:27.240960",
        "meta_mean_motion": 14.85178806,
        "meta_eccentricity": 0.00083747,
        "meta_inclination": 97.5495,
        "meta_ra_of_asc_node": 199.1236,
        "meta_arg_of_pericenter": 177.1443,
        "meta_mean_anomaly": 182.9822,
        "meta_ephemeris_type": 0,
        "meta_classification_type": "U",
        "meta_norad_cat_id": 40010,
        "meta_element_set_no": 999,
        "meta_rev_at_epoch": 62254,
        "meta_bstar": 3.5734186e-05,
        "meta_mean_motion_dot": 2.56e-06,
        "meta_mean_motion_ddot": 0,
        "tle_line1": "1 40010U 14033A   25355.24892640  .00000256  00000+0  35734-4 0  9999",
        "tle_line2": "2 40010  97.5495 199.1236 0008374 177.1443 182.9822 14.85178806622545"
      },
      "geometry": {
        "type": "Point",
        "coordinates": [
          26.131718059719162,
          41.18788836668794
        ]
      }
    },
    {
      "type": "Feature",
      "properties": {
        "norad_id": 40011,
        "name": "HODOYOSHI-4",
        "group": "resource",
        "lat": -58.844679373969235,
        "lon": -163.28608309483303,
        "alt_km": 623.459053340107,
        "timestamp": "2025-12-21T14:40:47.567802+00:00",
        "meta_object_name": "HODOYOSHI-4",
        "meta_object_id": "2014-033B",
        "meta_epoch": "2025-12-21T06:52:36.229152",
        "meta_mean_motion": 14.87509696,
        "meta_eccentricity": 0.00238552,
        "meta_inclination": 97.5406,
        "meta_ra_of_asc_node": 183.7483,
        "meta_arg_of_pericenter": 171.8482,
        "meta_mean_anomaly": 188.3128,
        "meta_ephemeris_type": 0,
        "meta_classification_type": "U",
        "meta_norad_cat_id": 40011,
        "meta_element_set_no": 999,
        "meta_rev_at_epoch": 62235,
        "meta_bstar": 0.0001703474,
        "meta_mean_motion_dot": 1.5e-05,
        "meta_mean_motion_ddot": 0,
        "tle_line1": "1 40011U 14033B   25355.28653043  .00001500  00000+0  17035-3 0  9992",
        "tle_line2": "2 40011  97.5406 183.7483 0023855 171.8482 188.3128 14.87509696622351"
      },
      "geometry": {
        "type": "Point",
        "coordinates": [
          -163.28608309483303,
          -58.844679373969235
        ]
      }
    },
    {
      "type": "Feature",
      "properties": {
        "norad_id": 40013,
        "name": "DEIMOS-2",
        "group": "resource",
        "lat": -81.93155130117943,
        "lon": -58.36644063188627,
        "alt_km": 596.9499860283513,
        "timestamp": "2025-12-21T14:40:47.567812+00:00",
        "meta_object_name": "DEIMOS-2",
        "meta_object_id": "2014-033D",
        "meta_epoch": "2025-12-21T05:25:10.871328",
        "meta_mean_motion": 14.93010265,
        "meta_eccentricity": 0.0001501,
        "meta_inclination": 97.6068,
        "meta_ra_of_asc_node": 230.7459,
        "meta_arg_of_pericenter": 102.3953,
        "meta_mean_anomaly": 257.7435,
        "meta_ephemeris_type": 0,
        "meta_classification_type": "U",
        "meta_norad_cat_id": 40013,
        "meta_element_set_no": 999,
        "meta_rev_at_epoch": 61116,
        "meta_bstar": 0.00021631044,
        "meta_mean_motion_dot": 2.194e-05,
        "meta_mean_motion_ddot": 0,
        "tle_line1": "1 40013U 14033D   25355.22582027  .00002194  00000+0  21631-3 0  9998",
        "tle_line2": "2 40013  97.6068 230.7459 0001501 102.3953 257.7435 14.93010265611165"
      },
      "geometry": {
        "type": "Point",
        "coordinates": [
          -58.36644063188627,
          -81.93155130117943
        ]
      }
    },
    {
      "type": "Feature",
      "properties": {
        "norad_id": 40015,
        "name": "HODOYOSHI-3",
        "group": "resource",
        "lat": 39.570944910264004,
        "lon": -12.586638618237705,
        "alt_km": 606.277385272846,
        "timestamp": "2025-12-21T14:40:47.567822+00:00",
        "meta_object_name": "HODOYOSHI-3",
        "meta_object_id": "2014-033F",
        "meta_epoch": "2025-12-21T05:57:44.868672",
        "meta_mean_motion": 14.84833252,
        "meta_eccentricity": 0.00322891,
        "meta_inclination": 97.6204,
        "meta_ra_of_asc_node": 160.7137,
        "meta_arg_of_pericenter": 218.9607,
        "meta_mean_anomaly": 140.9282,
        "meta_ephemeris_type": 0,
        "meta_classification_type": "U",
        "meta_norad_cat_id": 40015,
        "meta_element_set_no": 999,
        "meta_rev_at_epoch": 62121,
        "meta_bstar": 0.00015585101,
        "meta_mean_motion_dot": 1.283e-05,
        "meta_mean_motion_ddot": 0,
        "tle_line1": "1 40015U 14033F   25355.24843598  .00001283  00000+0  15585-3 0  9994",
        "tle_line2": "2 40015  97.6204 160.7137 0032289 218.9607 140.9282 14.84833252621210"
      },
      "geometry": {
        "type": "Point",
        "coordinates": [
          -12.586638618237705,
          39.570944910264004
        ]
      }
    },
    {
      "type": "Feature",
      "properties": {
        "norad_id": 40053,
        "name": "SPOT 7",
        "group": "resource",
        "lat": 4.522051389626018,
        "lon": -121.8724404374233,
        "alt_km": 693.1665239368367,
        "timestamp": "2025-12-21T14:40:47.567832+00:00",
        "meta_object_name": "SPOT 7",
        "meta_object_id": "2014-034A",
        "meta_epoch": "2025-12-21T07:18:14.740992",
        "meta_mean_motion": 14.60743871,
        "meta_eccentricity": 0.00015603,
        "meta_inclination": 98.09,
        "meta_ra_of_asc_node": 57.1828,
        "meta_arg_of_pericenter": 85.5352,
        "meta_mean_anomaly": 274.6027,
        "meta_ephemeris_type": 0,
        "meta_classification_type": "U",
        "meta_norad_cat_id": 40053,
        "meta_element_set_no": 999,
        "meta_rev_at_epoch": 61116,
        "meta_bstar": 0.00010055587,
        "meta_mean_motion_dot": 4.45e-06,
        "meta_mean_motion_ddot": 0,
        "tle_line1": "1 40053U 14034A   25355.30433728  .00000445  00000+0  10056-3 0  9991",
        "tle_line2": "2 40053  98.0900  57.1828 0001560  85.5352 274.6027 14.60743871611165"
      },
      "geometry": {
        "type": "Point",
        "coordinates": [
          -121.8724404374233,
          4.522051389626018
        ]
      }
    },
    {
      "type": "Feature",
      "properties": {
        "norad_id": 40072,
        "name": "SKYSAT-B",
        "group": "resource",
        "lat": -58.123436355613094,
        "lon": 106.10445259045726,
        "alt_km": 615.1956435305674,
        "timestamp": "2025-12-21T14:40:47.567842+00:00",
        "meta_object_name": "SKYSAT-B",
        "meta_object_id": "2014-037D",
        "meta_epoch": "2025-12-21T02:18:24.374880",
        "meta_mean_motion": 14.87353846,
        "meta_eccentricity": 0.00066589,
        "meta_inclination": 98.3624,
        "meta_ra_of_asc_node": 299.2438,
        "meta_arg_of_pericenter": 126.731,
        "meta_mean_anomaly": 233.4517,
        "meta_ephemeris_type": 0,
        "meta_classification_type": "U",
        "meta_norad_cat_id": 40072,
        "meta_element_set_no": 999,
        "meta_rev_at_epoch": 61948,
        "meta_bstar": 0.00013429035,
        "meta_mean_motion_dot": 1.152e-05,
        "meta_mean_motion_ddot": 0,
        "tle_line1": "1 40072U 14037D   25355.09611545  .00001152  00000+0  13429-3 0  9999",
        "tle_line2": "2 40072  98.3624 299.2438 0006658 126.7310 233.4517 14.87353846619481"
      },
      "geometry": {
        "type": "Point",
        "coordinates": [
          106.10445259045726,
          -58.123436355613094
        ]
      }
    },
    {
      "type": "Feature",
      "properties": {
        "norad_id": 40115,
        "name": "WORLDVIEW-3 (WV-3)",
        "group": "resource",
        "lat": 58.77510134382417,
        "lon": 54.58127827704122,
        "alt_km": 608.6215613574823,
        "timestamp": "2025-12-21T14:40:47.567853+00:00",
        "meta_object_name": "WORLDVIEW-3 (WV-3)",
        "meta_object_id": "2014-048A",
        "meta_epoch": "2025-12-21T06:19:27.806592",
        "meta_mean_motion": 14.84665896,
        "meta_eccentricity": 0.00018323,
        "meta_inclination": 97.8769,
        "meta_ra_of_asc_node": 67.4387,
        "meta_arg_of_pericenter": 135.3625,
        "meta_mean_anomaly": 224.7738,
        "meta_ephemeris_type": 0,
        "meta_classification_type": "U",
        "meta_norad_cat_id": 40115,
        "meta_element_set_no": 999,
        "meta_rev_at_epoch": 61550,
        "meta_bstar": 0.00010657299,
        "meta_mean_motion_dot": 8.48e-06,
        "meta_mean_motion_ddot": 0,
        "tle_line1": "1 40115U 14048A   25355.26351628  .00000848  00000+0  10657-3 0  9992",
        "tle_line2": "2 40115  97.8769  67.4387 0001832 135.3625 224.7738 14.84665896615500"
      },
      "geometry": {
        "type": "Point",
        "coordinates": [
          54.58127827704122,
          58.77510134382417
        ]
      }
    }
  ]
}